{
"type": "FeatureCollection",
"name": "Iowa Airports",
"crs": { "type": "name", "properties": { "name": "urn:ogc:def:crs:OGC:1.3:CRS84" } },
"features": [
{ "type": "Feature", "properties": { "AIRPORT_NA": "Montezuma Sig Field", "STREET_ADD": "5117 Highway 63", "ZIP_CODE": "50171", "ASSOCIATED": "Montezuma", "DIRECTION_": "S" }, "geometry": { "type": "Point", "coordinates": [ -92.534580870742076, 41.548694288632205 ] } },
{ "type": "Feature", "properties": { "AIRPORT_NA": "Southeast Iowa Regional", "STREET_ADD": "2515 Summer Street", "ZIP_CODE": "52601", "ASSOCIATED": "Burlington", "DIRECTION_": "SW" }, "geometry": { "type": "Point", "coordinates": [ -91.125684999207252, 40.783680707993831 ] } },
{ "type": "Feature", "properties": { "AIRPORT_NA": "Ames Municipal", "STREET_ADD": "2520 Airport Drive", "ZIP_CODE": "50010", "ASSOCIATED": "Ames", "DIRECTION_": "S" }, "geometry": { "type": "Point", "coordinates": [ -93.62164422629337, 41.99287284782698 ] } },
{ "type": "Feature", "properties": { "AIRPORT_NA": "Boone Municipal", "STREET_ADD": "424 Snedden Drive", "ZIP_CODE": "50036", "ASSOCIATED": "Boone", "DIRECTION_": "SE" }, "geometry": { "type": "Point", "coordinates": [ -93.84793422205685, 42.049852823150538 ] } },
{ "type": "Feature", "properties": { "AIRPORT_NA": "Marion", "STREET_ADD": "1690 Marion Airport Road", "ZIP_CODE": "52302", "ASSOCIATED": "Marion", "DIRECTION_": "E" }, "geometry": { "type": "Point", "coordinates": [ -91.531876326330476, 42.030953404270484 ] } },
{ "type": "Feature", "properties": { "AIRPORT_NA": "Rock Rapids Municipal", "STREET_ADD": "1357 Harding Avenue", "ZIP_CODE": "51246", "ASSOCIATED": "Rock Rapids", "DIRECTION_": "NW" }, "geometry": { "type": "Point", "coordinates": [ -96.179798183616441, 43.452234236557508 ] } },
{ "type": "Feature", "properties": { "AIRPORT_NA": "Cherokee County Regional", "STREET_ADD": "1201 South 2nd Avenue", "ZIP_CODE": "51012", "ASSOCIATED": "Cherokee", "DIRECTION_": "S" }, "geometry": { "type": "Point", "coordinates": [ -95.556191892343364, 42.73137979111879 ] } },
{ "type": "Feature", "properties": { "AIRPORT_NA": "Clinton Municipal", "STREET_ADD": "2000 South 60th Street", "ZIP_CODE": "52732", "ASSOCIATED": "Clinton", "DIRECTION_": "SW" }, "geometry": { "type": "Point", "coordinates": [ -90.32928379248024, 41.830813186340933 ] } },
{ "type": "Feature", "properties": { "AIRPORT_NA": "Elkader", "STREET_ADD": "21193 Grape Road", "ZIP_CODE": "52043", "ASSOCIATED": "Elkader", "DIRECTION_": "SE" }, "geometry": { "type": "Point", "coordinates": [ -91.382150018913634, 42.84705832102064 ] } },
{ "type": "Feature", "properties": { "AIRPORT_NA": "Clarinda Municipal - Schenck Field", "STREET_ADD": "698 East Laperla Drive", "ZIP_CODE": "51632", "ASSOCIATED": "Clarinda", "DIRECTION_": "SE" }, "geometry": { "type": "Point", "coordinates": [ -95.026283052663658, 40.722325664511288 ] } },
{ "type": "Feature", "properties": { "AIRPORT_NA": "Bedford Municipal", "STREET_ADD": "2103 - 290th Street", "ZIP_CODE": "50833", "ASSOCIATED": "Bedford", "DIRECTION_": "S" }, "geometry": { "type": "Point", "coordinates": [ -94.729363024872825, 40.637637204520793 ] } },
{ "type": "Feature", "properties": { "AIRPORT_NA": "Storm Lake Municipal", "STREET_ADD": "850 - 630th Street", "ZIP_CODE": "50588", "ASSOCIATED": "Storm Lake", "DIRECTION_": "SW" }, "geometry": { "type": "Point", "coordinates": [ -95.240488259946559, 42.598174212176168 ] } },
{ "type": "Feature", "properties": { "AIRPORT_NA": "Le Mars Municipal", "STREET_ADD": "1621 Airport Drive", "ZIP_CODE": "51031", "ASSOCIATED": "Le Mars", "DIRECTION_": "SW" }, "geometry": { "type": "Point", "coordinates": [ -96.193688311831906, 42.77796140623802 ] } },
{ "type": "Feature", "properties": { "AIRPORT_NA": "Keokuk Municipal", "STREET_ADD": "2504 - 340th Street", "ZIP_CODE": "52632", "ASSOCIATED": "Keokuk", "DIRECTION_": "NW" }, "geometry": { "type": "Point", "coordinates": [ -91.429121816599178, 40.459823479903811 ] } },
{ "type": "Feature", "properties": { "AIRPORT_NA": "Creston Municipal", "STREET_ADD": "1945 South Cherry Street Road", "ZIP_CODE": "50801", "ASSOCIATED": "Creston", "DIRECTION_": "S" }, "geometry": { "type": "Point", "coordinates": [ -94.362581981328319, 41.021986236531554 ] } },
{ "type": "Feature", "properties": { "AIRPORT_NA": "Webster City Municipal", "STREET_ADD": "1524 - 240th Street", "ZIP_CODE": "50595", "ASSOCIATED": "Webster City", "DIRECTION_": "SW" }, "geometry": { "type": "Point", "coordinates": [ -93.869035204313064, 42.436697061996327 ] } },
{ "type": "Feature", "properties": { "AIRPORT_NA": "Independence Municipal - James H. Connell", "STREET_ADD": "1400 Connell Avenue", "ZIP_CODE": "50644", "ASSOCIATED": "Independence", "DIRECTION_": "W" }, "geometry": { "type": "Point", "coordinates": [ -91.947598363596541, 42.453570388420466 ] } },
{ "type": "Feature", "properties": { "AIRPORT_NA": "Knoxville Municipal", "STREET_ADD": "1545 Highway 14", "ZIP_CODE": "50138", "ASSOCIATED": "Knoxville", "DIRECTION_": "S" }, "geometry": { "type": "Point", "coordinates": [ -93.113744726420578, 41.299109798115978 ] } },
{ "type": "Feature", "properties": { "AIRPORT_NA": "Sully Municipal", "STREET_ADD": "318 - 6th Avenue", "ZIP_CODE": "50251", "ASSOCIATED": "Sully", "DIRECTION_": "S" }, "geometry": { "type": "Point", "coordinates": [ -92.846544590235638, 41.574126088101941 ] } },
{ "type": "Feature", "properties": { "AIRPORT_NA": "Spencer Municipal", "STREET_ADD": "1957 - 330th Street", "ZIP_CODE": "51301", "ASSOCIATED": "Spencer", "DIRECTION_": "NW" }, "geometry": { "type": "Point", "coordinates": [ -95.20275526305565, 43.165647822586678 ] } },
{ "type": "Feature", "properties": { "AIRPORT_NA": "Mapleton - James G Whiting Mem Field", "STREET_ADD": "38483 Highway 175", "ZIP_CODE": "51034", "ASSOCIATED": "Mapleton", "DIRECTION_": "N" }, "geometry": { "type": "Point", "coordinates": [ -95.793662350675689, 42.178314872857321 ] } },
{ "type": "Feature", "properties": { "AIRPORT_NA": "Sac City Municipal", "STREET_ADD": "3062 - 280th Street", "ZIP_CODE": "50583", "ASSOCIATED": "Sac City", "DIRECTION_": "S" }, "geometry": { "type": "Point", "coordinates": [ -94.979611810610933, 42.37935951832543 ] } },
{ "type": "Feature", "properties": { "AIRPORT_NA": "Tipton Municipal - Mathews Memorial", "STREET_ADD": "1500 Airport Road", "ZIP_CODE": "52772", "ASSOCIATED": "Tipton", "DIRECTION_": "SW" }, "geometry": { "type": "Point", "coordinates": [ -91.152886441456261, 41.763362835158006 ] } },
{ "type": "Feature", "properties": { "AIRPORT_NA": "Bloomfield Municipal", "STREET_ADD": "20956 - 230th Street", "ZIP_CODE": "52537", "ASSOCIATED": "Bloomfield", "DIRECTION_": "SW" }, "geometry": { "type": "Point", "coordinates": [ -92.428311404220977, 40.732105699911372 ] } },
{ "type": "Feature", "properties": { "AIRPORT_NA": "Audubon County", "STREET_ADD": "2110 Highway 71", "ZIP_CODE": "50025", "ASSOCIATED": "Audubon", "DIRECTION_": "S" }, "geometry": { "type": "Point", "coordinates": [ -94.920454287044549, 41.701496897989365 ] } },
{ "type": "Feature", "properties": { "AIRPORT_NA": "Jefferson Municipal", "STREET_ADD": "1581 - 235th Street", "ZIP_CODE": "50129", "ASSOCIATED": "Jefferson", "DIRECTION_": "E" }, "geometry": { "type": "Point", "coordinates": [ -94.341879117134653, 42.010748943677257 ] } },
{ "type": "Feature", "properties": { "AIRPORT_NA": "Atlantic Municipal", "STREET_ADD": "59706 Airport Road", "ZIP_CODE": "50022", "ASSOCIATED": "Atlantic", "DIRECTION_": "W" }, "geometry": { "type": "Point", "coordinates": [ -95.047712457191111, 41.407635791607902 ] } },
{ "type": "Feature", "properties": { "AIRPORT_NA": "Marshalltown Municipal", "STREET_ADD": "2651 - 170th Street", "ZIP_CODE": "50158", "ASSOCIATED": "Marshalltown", "DIRECTION_": "N" }, "geometry": { "type": "Point", "coordinates": [ -92.918218048703181, 42.112725258375377 ] } },
{ "type": "Feature", "properties": { "AIRPORT_NA": "Algona Municipal", "STREET_ADD": "2907 Highway 18", "ZIP_CODE": "50511", "ASSOCIATED": "Algona", "DIRECTION_": "W" }, "geometry": { "type": "Point", "coordinates": [ -94.27177239059121, 43.077945161027195 ] } },
{ "type": "Feature", "properties": { "AIRPORT_NA": "Ottumwa Regional", "STREET_ADD": "14802 Terminal Street", "ZIP_CODE": "52501", "ASSOCIATED": "Ottumwa", "DIRECTION_": "NW" }, "geometry": { "type": "Point", "coordinates": [ -92.447911030346219, 41.106696486843383 ] } },
{ "type": "Feature", "properties": { "AIRPORT_NA": "Carroll Municipal - Arthur N. Neu", "STREET_ADD": "21177 Quail Avenue", "ZIP_CODE": "51401", "ASSOCIATED": "Carroll", "DIRECTION_": "SE" }, "geometry": { "type": "Point", "coordinates": [ -94.789249480986598, 42.046139697191514 ] } },
{ "type": "Feature", "properties": { "AIRPORT_NA": "Pella Municipal", "STREET_ADD": "501 West 15th Street", "ZIP_CODE": "50219", "ASSOCIATED": "Pella", "DIRECTION_": "W" }, "geometry": { "type": "Point", "coordinates": [ -92.945856227588806, 41.401211548112755 ] } },
{ "type": "Feature", "properties": { "AIRPORT_NA": "Eastern Iowa", "STREET_ADD": "2515 Arthur Collins Parkway Sw", "ZIP_CODE": "52404", "ASSOCIATED": "Cedar Rapids", "DIRECTION_": "SW" }, "geometry": { "type": "Point", "coordinates": [ -91.709964491832551, 41.88447823610877 ] } },
{ "type": "Feature", "properties": { "AIRPORT_NA": "Decorah Municipal", "STREET_ADD": "1705 Highway 9", "ZIP_CODE": "52101", "ASSOCIATED": "Decorah", "DIRECTION_": "SE" }, "geometry": { "type": "Point", "coordinates": [ -91.739357406556508, 43.275506226952693 ] } },
{ "type": "Feature", "properties": { "AIRPORT_NA": "Lamoni Municipal", "STREET_ADD": "28577 Airport Road", "ZIP_CODE": "50140", "ASSOCIATED": "Lamoni", "DIRECTION_": "NE" }, "geometry": { "type": "Point", "coordinates": [ -93.902204985037784, 40.633099265828363 ] } },
{ "type": "Feature", "properties": { "AIRPORT_NA": "West Union Municipal - George L Scott", "STREET_ADD": "10184 - 240th Street", "ZIP_CODE": "52175", "ASSOCIATED": "West Union", "DIRECTION_": "NE" }, "geometry": { "type": "Point", "coordinates": [ -91.790605238893392, 42.985085702903838 ] } },
{ "type": "Feature", "properties": { "AIRPORT_NA": "Vinton Veterans Memorial", "STREET_ADD": "5551 - 24th Avenue Drive", "ZIP_CODE": "52349", "ASSOCIATED": "Vinton", "DIRECTION_": "N" }, "geometry": { "type": "Point", "coordinates": [ -92.02529641394122, 42.218440862187848 ] } },
{ "type": "Feature", "properties": { "AIRPORT_NA": "New Hampton Municipal", "STREET_ADD": "1879 Kenwood Avenue", "ZIP_CODE": "50659", "ASSOCIATED": "New Hampton", "DIRECTION_": "NW" }, "geometry": { "type": "Point", "coordinates": [ -92.343230070911716, 43.087103391428386 ] } },
{ "type": "Feature", "properties": { "AIRPORT_NA": "Milford Municipal - Fuller", "STREET_ADD": "2008 N Avenue", "ZIP_CODE": "51351", "ASSOCIATED": "Milford", "DIRECTION_": "NW" }, "geometry": { "type": "Point", "coordinates": [ -95.159266761936024, 43.333331393271585 ] } },
{ "type": "Feature", "properties": { "AIRPORT_NA": "Albia Municipal", "STREET_ADD": "6750 - 201st Street", "ZIP_CODE": "52531", "ASSOCIATED": "Albia", "DIRECTION_": "SE" }, "geometry": { "type": "Point", "coordinates": [ -92.76570396083757, 40.996284163089172 ] } },
{ "type": "Feature", "properties": { "AIRPORT_NA": "Chariton Municipal", "STREET_ADD": "20199 Highway 34", "ZIP_CODE": "50049", "ASSOCIATED": "Chariton", "DIRECTION_": "W" }, "geometry": { "type": "Point", "coordinates": [ -93.360412459126906, 41.019625780420569 ] } },
{ "type": "Feature", "properties": { "AIRPORT_NA": "Red Oak Municipal", "STREET_ADD": "1674 - 200th Street", "ZIP_CODE": "51566", "ASSOCIATED": "Red Oak", "DIRECTION_": "W" }, "geometry": { "type": "Point", "coordinates": [ -95.259143294974123, 41.010684983878768 ] } },
{ "type": "Feature", "properties": { "AIRPORT_NA": "Estherville Municipal", "STREET_ADD": "1672 - 425th Avenue", "ZIP_CODE": "51334", "ASSOCIATED": "Estherville", "DIRECTION_": "E" }, "geometry": { "type": "Point", "coordinates": [ -94.746308278453824, 43.40724009015247 ] } },
{ "type": "Feature", "properties": { "AIRPORT_NA": "Dubuque Regional", "STREET_ADD": "11000 Airport Road", "ZIP_CODE": "52001", "ASSOCIATED": "Dubuque", "DIRECTION_": "SW" }, "geometry": { "type": "Point", "coordinates": [ -90.709495322360482, 42.401964666697054 ] } },
{ "type": "Feature", "properties": { "AIRPORT_NA": "Centerville Municipal", "STREET_ADD": "20320 - 545th Street", "ZIP_CODE": "52544", "ASSOCIATED": "Centerville", "DIRECTION_": "SW" }, "geometry": { "type": "Point", "coordinates": [ -92.901005033387122, 40.684436750235292 ] } },
{ "type": "Feature", "properties": { "AIRPORT_NA": "Council Bluffs Municipal", "STREET_ADD": "101 Mc Candless Lane", "ZIP_CODE": "51503", "ASSOCIATED": "Council Bluffs", "DIRECTION_": "E" }, "geometry": { "type": "Point", "coordinates": [ -95.75961175744186, 41.259804843196278 ] } },
{ "type": "Feature", "properties": { "AIRPORT_NA": "Cresco Municipal - Ellen Church Field", "STREET_ADD": "468 Airport Road", "ZIP_CODE": "52136", "ASSOCIATED": "Cresco", "DIRECTION_": "SW" }, "geometry": { "type": "Point", "coordinates": [ -92.133070443578845, 43.365315988934022 ] } },
{ "type": "Feature", "properties": { "AIRPORT_NA": "Woodbine Municipal", "STREET_ADD": "702 Lincolnway Street", "ZIP_CODE": "51579", "ASSOCIATED": "Woodbine", "DIRECTION_": "E" }, "geometry": { "type": "Point", "coordinates": [ -95.683829218913488, 41.735864649788958 ] } },
{ "type": "Feature", "properties": { "AIRPORT_NA": "Greenfield Municipal", "STREET_ADD": "2251 Airport Road", "ZIP_CODE": "50849", "ASSOCIATED": "Greenfield", "DIRECTION_": "NE" }, "geometry": { "type": "Point", "coordinates": [ -94.445497447741474, 41.327190732483174 ] } },
{ "type": "Feature", "properties": { "AIRPORT_NA": "Muscatine Municipal", "STREET_ADD": "5701 South Highway 61", "ZIP_CODE": "52761", "ASSOCIATED": "Muscatine", "DIRECTION_": "SW" }, "geometry": { "type": "Point", "coordinates": [ -91.148634898472835, 41.36818726517685 ] } },
{ "type": "Feature", "properties": { "AIRPORT_NA": "Iowa City Municipal", "STREET_ADD": "1801 South Riverside", "ZIP_CODE": "52246", "ASSOCIATED": "Iowa City", "DIRECTION_": "SW" }, "geometry": { "type": "Point", "coordinates": [ -91.546482647185996, 41.638549098491573 ] } },
{ "type": "Feature", "properties": { "AIRPORT_NA": "Waterloo Regional", "STREET_ADD": "2790 Livingston Lane", "ZIP_CODE": "50704", "ASSOCIATED": "Waterloo", "DIRECTION_": "NW" }, "geometry": { "type": "Point", "coordinates": [ -92.40036104280783, 42.55673319768195 ] } },
{ "type": "Feature", "properties": { "AIRPORT_NA": "Allison Municipal", "STREET_ADD": "823 Birch Street", "ZIP_CODE": "50602", "ASSOCIATED": "Allison", "DIRECTION_": "NW" }, "geometry": { "type": "Point", "coordinates": [ -92.804667995519125, 42.761742988882091 ] } },
{ "type": "Feature", "properties": { "AIRPORT_NA": "Corning Municipal", "STREET_ADD": "1906 - 210th Street", "ZIP_CODE": "50841", "ASSOCIATED": "Corning", "DIRECTION_": "W" }, "geometry": { "type": "Point", "coordinates": [ -94.754984856949804, 40.994144276284963 ] } },
{ "type": "Feature", "properties": { "AIRPORT_NA": "Fort Madison Municipal", "STREET_ADD": "50 Airport Road", "ZIP_CODE": "52627", "ASSOCIATED": "Fort Madison", "DIRECTION_": "N" }, "geometry": { "type": "Point", "coordinates": [ -91.325878731151164, 40.659217711990991 ] } },
{ "type": "Feature", "properties": { "AIRPORT_NA": "Manchester Municipal", "STREET_ADD": "1561 Early Stage Coach Road", "ZIP_CODE": "52057", "ASSOCIATED": "Manchester", "DIRECTION_": "W" }, "geometry": { "type": "Point", "coordinates": [ -91.497868121001616, 42.490506451039536 ] } },
{ "type": "Feature", "properties": { "AIRPORT_NA": "Toledo Municipal", "STREET_ADD": "2118 310th Street", "ZIP_CODE": "52342", "ASSOCIATED": "Toledo", "DIRECTION_": "E" }, "geometry": { "type": "Point", "coordinates": [ -92.548007882394288, 41.988709424431526 ] } },
{ "type": "Feature", "properties": { "AIRPORT_NA": "Des Moines International", "STREET_ADD": "5800 Fleur Drive", "ZIP_CODE": "50321", "ASSOCIATED": "Des Moines", "DIRECTION_": "SW" }, "geometry": { "type": "Point", "coordinates": [ -93.662565424077698, 41.534257131857565 ] } },
{ "type": "Feature", "properties": { "AIRPORT_NA": "Mason City Municipal", "STREET_ADD": "9184 - 265th Street", "ZIP_CODE": "50402", "ASSOCIATED": "Mason City", "DIRECTION_": "W" }, "geometry": { "type": "Point", "coordinates": [ -93.331548240676909, 43.157633950474604 ] } },
{ "type": "Feature", "properties": { "AIRPORT_NA": "Amana", "STREET_ADD": "950 - 48th Avenue", "ZIP_CODE": "52203", "ASSOCIATED": "Amana", "DIRECTION_": "SE" }, "geometry": { "type": "Point", "coordinates": [ -91.864744676122072, 41.794153168785023 ] } },
{ "type": "Feature", "properties": { "AIRPORT_NA": "Ankeny Regional", "STREET_ADD": "3737 S E Convenience Boulevard", "ZIP_CODE": "50021", "ASSOCIATED": "Ankeny", "DIRECTION_": "E" }, "geometry": { "type": "Point", "coordinates": [ -93.566404715618475, 41.691539217792013 ] } },
{ "type": "Feature", "properties": { "AIRPORT_NA": "Emmetsburg Municipal", "STREET_ADD": "3775 - 450th Avenue", "ZIP_CODE": "50536", "ASSOCIATED": "Emmetsburg", "DIRECTION_": "SW" }, "geometry": { "type": "Point", "coordinates": [ -94.704071320967813, 43.101833163331129 ] } },
{ "type": "Feature", "properties": { "AIRPORT_NA": "Perry Municipal", "STREET_ADD": "14381 Galveston Court", "ZIP_CODE": "50220", "ASSOCIATED": "Perry", "DIRECTION_": "W" }, "geometry": { "type": "Point", "coordinates": [ -94.15954440238383, 41.827936722321134 ] } },
{ "type": "Feature", "properties": { "AIRPORT_NA": "Maquoketa Municipal", "STREET_ADD": "2215 - 134th Avenue", "ZIP_CODE": "52060", "ASSOCIATED": "Maquoketa", "DIRECTION_": "W" }, "geometry": { "type": "Point", "coordinates": [ -90.738787372447703, 42.050071845644382 ] } },
{ "type": "Feature", "properties": { "AIRPORT_NA": "Rockwell City Municipal", "STREET_ADD": "811 1st Street", "ZIP_CODE": "50579", "ASSOCIATED": "Rockwell City", "DIRECTION_": "SE" }, "geometry": { "type": "Point", "coordinates": [ -94.618907515128939, 42.387819388123432 ] } },
{ "type": "Feature", "properties": { "AIRPORT_NA": "Fairfield Municipal", "STREET_ADD": "2013 Airport Road", "ZIP_CODE": "52556", "ASSOCIATED": "Fairfield", "DIRECTION_": "NW" }, "geometry": { "type": "Point", "coordinates": [ -91.981911832628597, 41.053303135240014 ] } },
{ "type": "Feature", "properties": { "AIRPORT_NA": "Fort Dodge Regional", "STREET_ADD": "1639 Nelson Avenue", "ZIP_CODE": "50501", "ASSOCIATED": "Fort Dodge", "DIRECTION_": "N" }, "geometry": { "type": "Point", "coordinates": [ -94.192018589736264, 42.551479366448163 ] } },
{ "type": "Feature", "properties": { "AIRPORT_NA": "Lake Mills Municipal", "STREET_ADD": "24304 - 445th Street", "ZIP_CODE": "50450", "ASSOCIATED": "Lake Mills", "DIRECTION_": "E" }, "geometry": { "type": "Point", "coordinates": [ -93.512008366364199, 43.414011415929885 ] } },
{ "type": "Feature", "properties": { "AIRPORT_NA": "Anita Municipal-Burke Memorial Field", "STREET_ADD": "800 Truman Road", "ZIP_CODE": "50020", "ASSOCIATED": "Anita", "DIRECTION_": "S" }, "geometry": { "type": "Point", "coordinates": [ -94.770162258391011, 41.440146517625465 ] } },
{ "type": "Feature", "properties": { "AIRPORT_NA": "Sioux Gateway", "STREET_ADD": "2403 Aviation Boulevard", "ZIP_CODE": "51111", "ASSOCIATED": "Sioux City", "DIRECTION_": "S" }, "geometry": { "type": "Point", "coordinates": [ -96.384055053980902, 42.403021120867322 ] } },
{ "type": "Feature", "properties": { "AIRPORT_NA": "Osceola Municipal", "STREET_ADD": "1754 - 270th Avenue", "ZIP_CODE": "50213", "ASSOCIATED": "Osceola", "DIRECTION_": "E" }, "geometry": { "type": "Point", "coordinates": [ -93.689125441366045, 41.052223789268275 ] } },
{ "type": "Feature", "properties": { "AIRPORT_NA": "Sheldon Regional", "STREET_ADD": "3020 Northwest Blvd", "ZIP_CODE": "51201", "ASSOCIATED": "Sheldon", "DIRECTION_": "NE" }, "geometry": { "type": "Point", "coordinates": [ -95.83342688309007, 43.208384181835719 ] } },
{ "type": "Feature", "properties": { "AIRPORT_NA": "Osage Municipal", "STREET_ADD": "1503 Ash Street", "ZIP_CODE": "50461", "ASSOCIATED": "Osage", "DIRECTION_": "NE" }, "geometry": { "type": "Point", "coordinates": [ -92.795561112323938, 43.292382349910497 ] } },
{ "type": "Feature", "properties": { "AIRPORT_NA": "Hampton Municipal", "STREET_ADD": "1274 \"B\" Olive Road", "ZIP_CODE": "50441", "ASSOCIATED": "Hampton", "DIRECTION_": "SW" }, "geometry": { "type": "Point", "coordinates": [ -93.226314616120035, 42.723712050042344 ] } },
{ "type": "Feature", "properties": { "AIRPORT_NA": "Clarion Municipal", "STREET_ADD": "2076 - 210th Street", "ZIP_CODE": "50525", "ASSOCIATED": "Clarion", "DIRECTION_": "NW" }, "geometry": { "type": "Point", "coordinates": [ -93.758605945138399, 42.742488198570918 ] } },
{ "type": "Feature", "properties": { "AIRPORT_NA": "Mount Ayr Municipal - Judge Lewis Field", "STREET_ADD": "Highway 2 And 169", "ZIP_CODE": "50854", "ASSOCIATED": "Mount Ayr", "DIRECTION_": "SE" }, "geometry": { "type": "Point", "coordinates": [ -94.220182876849506, 40.705880762929048 ] } },
{ "type": "Feature", "properties": { "AIRPORT_NA": "Grundy Center Municipal", "STREET_ADD": "19220 240th Street", "ZIP_CODE": "50638", "ASSOCIATED": "Grundy Center", "DIRECTION_": "W" }, "geometry": { "type": "Point", "coordinates": [ -92.841562209378097, 42.350547324634874 ] } },
{ "type": "Feature", "properties": { "AIRPORT_NA": "Pocahontas Municipal", "STREET_ADD": "23240 - 510th Street", "ZIP_CODE": "50574", "ASSOCIATED": "Pocahontas", "DIRECTION_": "NE" }, "geometry": { "type": "Point", "coordinates": [ -94.647003585976123, 42.743229551366746 ] } },
{ "type": "Feature", "properties": { "AIRPORT_NA": "Ida Grove Municipal", "STREET_ADD": "2573 Highway 59", "ZIP_CODE": "51445", "ASSOCIATED": "Ida Grove", "DIRECTION_": "SE" }, "geometry": { "type": "Point", "coordinates": [ -95.444908770118133, 42.332589596648042 ] } },
{ "type": "Feature", "properties": { "AIRPORT_NA": "Spirit Lake Municipal", "STREET_ADD": "13871 Center Drive", "ZIP_CODE": "51355", "ASSOCIATED": "Spirit Lake", "DIRECTION_": "SW" }, "geometry": { "type": "Point", "coordinates": [ -95.13948337643626, 43.387485091740174 ] } },
{ "type": "Feature", "properties": { "AIRPORT_NA": "Ackley Municipal", "STREET_ADD": "1301 4th Avenue", "ZIP_CODE": "50601", "ASSOCIATED": "Ackley", "DIRECTION_": "SE" }, "geometry": { "type": "Point", "coordinates": [ -93.032848064606668, 42.546678613743453 ] } },
{ "type": "Feature", "properties": { "AIRPORT_NA": "Monona Municipal", "STREET_ADD": "23140 - 130th Street", "ZIP_CODE": "52159", "ASSOCIATED": "Monona", "DIRECTION_": "SE" }, "geometry": { "type": "Point", "coordinates": [ -91.34649546487536, 43.032943637971542 ] } },
{ "type": "Feature", "properties": { "AIRPORT_NA": "Grinnell Regional", "STREET_ADD": "1607 West Street South", "ZIP_CODE": "50112", "ASSOCIATED": "Grinnell", "DIRECTION_": "S" }, "geometry": { "type": "Point", "coordinates": [ -92.735995583836996, 41.709907132116058 ] } },
{ "type": "Feature", "properties": { "AIRPORT_NA": "Paullina Municipal", "STREET_ADD": "5690 - 460th Street", "ZIP_CODE": "51046", "ASSOCIATED": "Paullina", "DIRECTION_": "E" }, "geometry": { "type": "Point", "coordinates": [ -95.664468866250687, 42.987913149027307 ] } },
{ "type": "Feature", "properties": { "AIRPORT_NA": "Northwood Municipal", "STREET_ADD": "4646 Mallard Avenue", "ZIP_CODE": "50459", "ASSOCIATED": "Northwood", "DIRECTION_": "E" }, "geometry": { "type": "Point", "coordinates": [ -93.201549211783799, 43.448742279348835 ] } },
{ "type": "Feature", "properties": { "AIRPORT_NA": "Humboldt Municipal", "STREET_ADD": "2601 - 220th Street", "ZIP_CODE": "50548", "ASSOCIATED": "Humboldt", "DIRECTION_": "W" }, "geometry": { "type": "Point", "coordinates": [ -94.24546461574306, 42.734882681566255 ] } },
{ "type": "Feature", "properties": { "AIRPORT_NA": "Oskaloosa Municipal", "STREET_ADD": "2973 Urbana Avenue", "ZIP_CODE": "52557", "ASSOCIATED": "Oskaloosa", "DIRECTION_": "SE" }, "geometry": { "type": "Point", "coordinates": [ -92.49385820602545, 41.226800205902443 ] } },
{ "type": "Feature", "properties": { "AIRPORT_NA": "Denison Municipal", "STREET_ADD": "2587 Airport Street", "ZIP_CODE": "51442", "ASSOCIATED": "Denison", "DIRECTION_": "SW" }, "geometry": { "type": "Point", "coordinates": [ -95.381109832938378, 41.987021960676152 ] } },
{ "type": "Feature", "properties": { "AIRPORT_NA": "Eagle Grove Municipal", "STREET_ADD": "2355 Highway 17", "ZIP_CODE": "50533", "ASSOCIATED": "Eagle Grove", "DIRECTION_": "N" }, "geometry": { "type": "Point", "coordinates": [ -93.916027320093704, 42.7099158136106 ] } },
{ "type": "Feature", "properties": { "AIRPORT_NA": "Sibley Municipal", "STREET_ADD": "1928 Olive Avenue", "ZIP_CODE": "51249", "ASSOCIATED": "Sibley", "DIRECTION_": "S" }, "geometry": { "type": "Point", "coordinates": [ -95.759629467727677, 43.369365487389409 ] } },
{ "type": "Feature", "properties": { "AIRPORT_NA": "Northeast Iowa Regional", "STREET_ADD": "3129 Highway 18", "ZIP_CODE": "50616", "ASSOCIATED": "Charles City", "DIRECTION_": "E" }, "geometry": { "type": "Point", "coordinates": [ -92.610825988641153, 43.071900951650008 ] } },
{ "type": "Feature", "properties": { "AIRPORT_NA": "Monticello Regional", "STREET_ADD": "20373 Highway 38 S", "ZIP_CODE": "52310", "ASSOCIATED": "Monticello", "DIRECTION_": "SE" }, "geometry": { "type": "Point", "coordinates": [ -91.162916167536054, 42.220008002609603 ] } },
{ "type": "Feature", "properties": { "AIRPORT_NA": "Davenport Municipal", "STREET_ADD": "9230 North Harrison Street", "ZIP_CODE": "52806", "ASSOCIATED": "Davenport", "DIRECTION_": "N" }, "geometry": { "type": "Point", "coordinates": [ -90.588352526037042, 41.610550766042998 ] } },
{ "type": "Feature", "properties": { "AIRPORT_NA": "Forest City Municipal", "STREET_ADD": "1842 - 330th Street", "ZIP_CODE": "50436", "ASSOCIATED": "Forest City", "DIRECTION_": "S" }, "geometry": { "type": "Point", "coordinates": [ -93.625129748884561, 43.23553717666087 ] } },
{ "type": "Feature", "properties": { "AIRPORT_NA": "Belmond Municipal", "STREET_ADD": "1607 3rd Street Ne", "ZIP_CODE": "50421", "ASSOCIATED": "Belmond", "DIRECTION_": "E" }, "geometry": { "type": "Point", "coordinates": [ -93.592986451475454, 42.854274404252379 ] } },
{ "type": "Feature", "properties": { "AIRPORT_NA": "Waverly Municipal", "STREET_ADD": "1710 - 35th Street Northwest", "ZIP_CODE": "50677", "ASSOCIATED": "Waverly", "DIRECTION_": "NW" }, "geometry": { "type": "Point", "coordinates": [ -92.507897733954138, 42.741978941922838 ] } },
{ "type": "Feature", "properties": { "AIRPORT_NA": "Newton Municipal - Earl Johnson Field", "STREET_ADD": "2901 Rusty Wallace Drive", "ZIP_CODE": "50208", "ASSOCIATED": "Newton", "DIRECTION_": "SE" }, "geometry": { "type": "Point", "coordinates": [ -93.021742721856796, 41.674428494777693 ] } },
{ "type": "Feature", "properties": { "AIRPORT_NA": "Harlan Municipal", "STREET_ADD": "610 Highway 59", "ZIP_CODE": "51537", "ASSOCIATED": "Harlan", "DIRECTION_": "S" }, "geometry": { "type": "Point", "coordinates": [ -95.339597392780163, 41.584037409789744 ] } },
{ "type": "Feature", "properties": { "AIRPORT_NA": "Mount Pleasant Municipal", "STREET_ADD": "1720 South Iris Street", "ZIP_CODE": "52641", "ASSOCIATED": "Mount Pleasant", "DIRECTION_": "SE" }, "geometry": { "type": "Point", "coordinates": [ -91.511336674345841, 40.946853207050864 ] } },
{ "type": "Feature", "properties": { "AIRPORT_NA": "Winterset Municipal", "STREET_ADD": "3405 North 8th Avenue", "ZIP_CODE": "50273", "ASSOCIATED": "Winterset", "DIRECTION_": "N" }, "geometry": { "type": "Point", "coordinates": [ -94.021190222084883, 41.362821782977434 ] } },
{ "type": "Feature", "properties": { "AIRPORT_NA": "Oelwein Municipal", "STREET_ADD": "19623 - 40th Street", "ZIP_CODE": "50662", "ASSOCIATED": "Oelwein", "DIRECTION_": "W" }, "geometry": { "type": "Point", "coordinates": [ -91.97416669030126, 42.68137597590399 ] } },
{ "type": "Feature", "properties": { "AIRPORT_NA": "Shenandoah Municipal", "STREET_ADD": "2033 Manti Road", "ZIP_CODE": "51601", "ASSOCIATED": "Shenandoah", "DIRECTION_": "SW" }, "geometry": { "type": "Point", "coordinates": [ -95.413849926106522, 40.751806033293605 ] } },
{ "type": "Feature", "properties": { "AIRPORT_NA": "Washington Municipal", "STREET_ADD": "1625 South Airport Road", "ZIP_CODE": "52353", "ASSOCIATED": "Washington", "DIRECTION_": "SE" }, "geometry": { "type": "Point", "coordinates": [ -91.67505511278037, 41.275091505870229 ] } },
{ "type": "Feature", "properties": { "AIRPORT_NA": "Keosauqua Municipal", "STREET_ADD": "1000 Water Street", "ZIP_CODE": "52565", "ASSOCIATED": "Keosauqua", "DIRECTION_": "E" }, "geometry": { "type": "Point", "coordinates": [ -91.9496405504443, 40.733418877996094 ] } },
{ "type": "Feature", "properties": { "AIRPORT_NA": "Iowa Falls Municipal", "STREET_ADD": "16041 Highway 65", "ZIP_CODE": "50126", "ASSOCIATED": "Iowa Falls", "DIRECTION_": "S" }, "geometry": { "type": "Point", "coordinates": [ -93.269936355362617, 42.470802194337175 ] } },
{ "type": "Feature", "properties": { "AIRPORT_NA": "Primghar Municipal", "STREET_ADD": "875 - 3rd Street Southeast", "ZIP_CODE": "51245-0039", "ASSOCIATED": "Primghar", "DIRECTION_": "E" }, "geometry": { "type": "Point", "coordinates": [ -95.614395312551522, 43.078474762105962 ] } },
{ "type": "Feature", "properties": { "AIRPORT_NA": "Guthrie County Regional", "STREET_ADD": "2607 Highway 44", "ZIP_CODE": "50115", "ASSOCIATED": "Guthrie Center", "DIRECTION_": "E" }, "geometry": { "type": "Point", "coordinates": [ -94.435050613214017, 41.686982573039344 ] } },
{ "type": "Feature", "properties": { "AIRPORT_NA": "Traer Municipal", "STREET_ADD": "1680 Q Avenue", "ZIP_CODE": "50675", "ASSOCIATED": "Traer", "DIRECTION_": "NE" }, "geometry": { "type": "Point", "coordinates": [ -92.456680264673864, 42.200834394866227 ] } },
{ "type": "Feature", "properties": { "AIRPORT_NA": "Belle Plaine Municipal - Mansfield Tippie", "STREET_ADD": "20956 - 230th Street", "ZIP_CODE": "52537", "ASSOCIATED": "Belle Plaine", "DIRECTION_": "SW" }, "geometry": { "type": "Point", "coordinates": [ -92.28453213622447, 41.878792591016548 ] } },
{ "type": "Feature", "properties": { "AIRPORT_NA": "Zangger Vintage Airpark", "STREET_ADD": "1351 Airport Road North", "ZIP_CODE": "51241", "ASSOCIATED": "Larchwood", "DIRECTION_": "E" }, "geometry": { "type": "Point", "coordinates": [ -96.402345749397242, 43.449410573541108 ] } },
{ "type": "Feature", "properties": { "AIRPORT_NA": "Waukon Municipal", "STREET_ADD": "911 Alamakee Street", "ZIP_CODE": "52172", "ASSOCIATED": "Waukon", "DIRECTION_": "NE" }, "geometry": { "type": "Point", "coordinates": [ -91.469502590603511, 43.280464576496506 ] } },
{ "type": "Feature", "properties": { "AIRPORT_NA": "Dyersville Area", "STREET_ADD": "104 5th Street Southeast", "ZIP_CODE": "52040", "ASSOCIATED": "Dyersville", "DIRECTION_": "W" }, "geometry": { "type": "Point", "coordinates": [ -91.179231591610105, 42.496028439536275 ] } },
{ "type": "Feature", "properties": { "AIRPORT_NA": "Eldora", "STREET_ADD": "30161 - 260th Street", "ZIP_CODE": "50206", "ASSOCIATED": "Eldora", "DIRECTION_": "SW" }, "geometry": { "type": "Point", "coordinates": [ -93.114256397823254, 42.330490809745712 ] } },
{ "type": "Feature", "properties": { "AIRPORT_NA": "Peltz Field", "STREET_ADD": "5191 - 260th Street", "ZIP_CODE": "50578", "ASSOCIATED": "Ringsted", "DIRECTION_": "SW" }, "geometry": { "type": "Point", "coordinates": [ -94.56345054388332, 43.265924806021481 ] } },
{ "type": "Feature", "properties": { "AIRPORT_NA": "Sioux County Regional", "STREET_ADD": "3153 - 460th Street", "ZIP_CODE": "51036", "ASSOCIATED": "Maurice", "DIRECTION_": "N" }, "geometry": { "type": "Point", "coordinates": [ -96.161317929302129, 42.985157406653649 ] } }
]
}
